<?xml version="1.0" encoding="UTF-8"?>
<ndm xmlns:xsi="http://www.w3.org/2001/XMLSchema-instance" xsi:noNamespaceSchemaLocation="https://sanaregistry.org/r/ndmxml_unqualified/ndmxml-2.0.0-master-2.0.xsd">
<omm id="CCSDS_OMM_VERS" version="2.0">
<header><CREATION_DATE/><ORIGINATOR/></header><body><segment><metadata><OBJECT_NAME>KUIPER-00186</OBJECT_NAME><OBJECT_ID>2025-301H</OBJECT_ID><CENTER_NAME>EARTH</CENTER_NAME><REF_FRAME>TEME</REF_FRAME><TIME_SYSTEM>UTC</TIME_SYSTEM><MEAN_ELEMENT_THEORY>SGP4</MEAN_ELEMENT_THEORY></metadata><data><meanElements><EPOCH>2026-01-04T14:52:37.773696</EPOCH><MEAN_MOTION>15.35546955</MEAN_MOTION><ECCENTRICITY>.00078634</ECCENTRICITY><INCLINATION>51.8694</INCLINATION><RA_OF_ASC_NODE>14.8438</RA_OF_ASC_NODE><ARG_OF_PERICENTER>158.9399</ARG_OF_PERICENTER><MEAN_ANOMALY>201.1912</MEAN_ANOMALY></meanElements><tleParameters><EPHEMERIS_TYPE>0</EPHEMERIS_TYPE><CLASSIFICATION_TYPE>U</CLASSIFICATION_TYPE><NORAD_CAT_ID>67140</NORAD_CAT_ID><ELEMENT_SET_NO>999</ELEMENT_SET_NO><REV_AT_EPOCH>388</REV_AT_EPOCH><BSTAR>.87848943E-3</BSTAR><MEAN_MOTION_DOT>.30584E-3</MEAN_MOTION_DOT><MEAN_MOTION_DDOT>0</MEAN_MOTION_DDOT></tleParameters></data></segment></body></omm>
<omm id="CCSDS_OMM_VERS" version="2.0">
<header><CREATION_DATE/><ORIGINATOR/></header><body><segment><metadata><OBJECT_NAME>KUIPER-00187</OBJECT_NAME><OBJECT_ID>2025-301J</OBJECT_ID><CENTER_NAME>EARTH</CENTER_NAME><REF_FRAME>TEME</REF_FRAME><TIME_SYSTEM>UTC</TIME_SYSTEM><MEAN_ELEMENT_THEORY>SGP4</MEAN_ELEMENT_THEORY></metadata><data><meanElements><EPOCH>2026-01-04T14:38:35.549088</EPOCH><MEAN_MOTION>15.36184745</MEAN_MOTION><ECCENTRICITY>.00049282</ECCENTRICITY><INCLINATION>51.8720</INCLINATION><RA_OF_ASC_NODE>14.7831</RA_OF_ASC_NODE><ARG_OF_PERICENTER>145.0018</ARG_OF_PERICENTER><MEAN_ANOMALY>215.1293</MEAN_ANOMALY></meanElements><tleParameters><EPHEMERIS_TYPE>0</EPHEMERIS_TYPE><CLASSIFICATION_TYPE>U</CLASSIFICATION_TYPE><NORAD_CAT_ID>67141</NORAD_CAT_ID><ELEMENT_SET_NO>999</ELEMENT_SET_NO><REV_AT_EPOCH>388</REV_AT_EPOCH><BSTAR>.98248998E-3</BSTAR><MEAN_MOTION_DOT>.34966E-3</MEAN_MOTION_DOT><MEAN_MOTION_DDOT>0</MEAN_MOTION_DDOT></tleParameters></data></segment></body></omm>
<omm id="CCSDS_OMM_VERS" version="2.0">
<header><CREATION_DATE/><ORIGINATOR/></header><body><segment><metadata><OBJECT_NAME>KUIPER-00188</OBJECT_NAME><OBJECT_ID>2025-301K</OBJECT_ID><CENTER_NAME>EARTH</CENTER_NAME><REF_FRAME>TEME</REF_FRAME><TIME_SYSTEM>UTC</TIME_SYSTEM><MEAN_ELEMENT_THEORY>SGP4</MEAN_ELEMENT_THEORY></metadata><data><meanElements><EPOCH>2026-01-04T08:39:25.266240</EPOCH><MEAN_MOTION>15.35404837</MEAN_MOTION><ECCENTRICITY>.00074962</ECCENTRICITY><INCLINATION>51.8705</INCLINATION><RA_OF_ASC_NODE>16.1079</RA_OF_ASC_NODE><ARG_OF_PERICENTER>163.7326</ARG_OF_PERICENTER><MEAN_ANOMALY>196.3901</MEAN_ANOMALY></meanElements><tleParameters><EPHEMERIS_TYPE>0</EPHEMERIS_TYPE><CLASSIFICATION_TYPE>U</CLASSIFICATION_TYPE><NORAD_CAT_ID>67142</NORAD_CAT_ID><ELEMENT_SET_NO>999</ELEMENT_SET_NO><REV_AT_EPOCH>384</REV_AT_EPOCH><BSTAR>.47462345E-3</BSTAR><MEAN_MOTION_DOT>.16238E-3</MEAN_MOTION_DOT><MEAN_MOTION_DDOT>0</MEAN_MOTION_DDOT></tleParameters></data></segment></body></omm>
<omm id="CCSDS_OMM_VERS" version="2.0">
<header><CREATION_DATE/><ORIGINATOR/></header><body><segment><metadata><OBJECT_NAME>KUIPER-00191</OBJECT_NAME><OBJECT_ID>2025-301L</OBJECT_ID><CENTER_NAME>EARTH</CENTER_NAME><REF_FRAME>TEME</REF_FRAME><TIME_SYSTEM>UTC</TIME_SYSTEM><MEAN_ELEMENT_THEORY>SGP4</MEAN_ELEMENT_THEORY></metadata><data><meanElements><EPOCH>2026-01-04T14:50:39.245856</EPOCH><MEAN_MOTION>15.35585566</MEAN_MOTION><ECCENTRICITY>.00065581</ECCENTRICITY><INCLINATION>51.8684</INCLINATION><RA_OF_ASC_NODE>14.8348</RA_OF_ASC_NODE><ARG_OF_PERICENTER>158.6353</ARG_OF_PERICENTER><MEAN_ANOMALY>201.4908</MEAN_ANOMALY></meanElements><tleParameters><EPHEMERIS_TYPE>0</EPHEMERIS_TYPE><CLASSIFICATION_TYPE>U</CLASSIFICATION_TYPE><NORAD_CAT_ID>67143</NORAD_CAT_ID><ELEMENT_SET_NO>999</ELEMENT_SET_NO><REV_AT_EPOCH>391</REV_AT_EPOCH><BSTAR>.78402882E-3</BSTAR><MEAN_MOTION_DOT>.27269E-3</MEAN_MOTION_DOT><MEAN_MOTION_DDOT>0</MEAN_MOTION_DDOT></tleParameters></data></segment></body></omm>
<omm id="CCSDS_OMM_VERS" version="2.0">
<header><CREATION_DATE/><ORIGINATOR/></header><body><segment><metadata><OBJECT_NAME>KUIPER-00196</OBJECT_NAME><OBJECT_ID>2025-301M</OBJECT_ID><CENTER_NAME>EARTH</CENTER_NAME><REF_FRAME>TEME</REF_FRAME><TIME_SYSTEM>UTC</TIME_SYSTEM><MEAN_ELEMENT_THEORY>SGP4</MEAN_ELEMENT_THEORY></metadata><data><meanElements><EPOCH>2026-01-04T13:01:35.252832</EPOCH><MEAN_MOTION>15.36362763</MEAN_MOTION><ECCENTRICITY>.00038568</ECCENTRICITY><INCLINATION>51.8737</INCLINATION><RA_OF_ASC_NODE>15.0812</RA_OF_ASC_NODE><ARG_OF_PERICENTER>120.8124</ARG_OF_PERICENTER><MEAN_ANOMALY>239.3243</MEAN_ANOMALY></meanElements><tleParameters><EPHEMERIS_TYPE>0</EPHEMERIS_TYPE><CLASSIFICATION_TYPE>U</CLASSIFICATION_TYPE><NORAD_CAT_ID>67144</NORAD_CAT_ID><ELEMENT_SET_NO>999</ELEMENT_SET_NO><REV_AT_EPOCH>387</REV_AT_EPOCH><BSTAR>.90875483E-3</BSTAR><MEAN_MOTION_DOT>.32484E-3</MEAN_MOTION_DOT><MEAN_MOTION_DDOT>0</MEAN_MOTION_DDOT></tleParameters></data></segment></body></omm>
<omm id="CCSDS_OMM_VERS" version="2.0">
<header><CREATION_DATE/><ORIGINATOR/></header><body><segment><metadata><OBJECT_NAME>KUIPER-00204</OBJECT_NAME><OBJECT_ID>2025-301N</OBJECT_ID><CENTER_NAME>EARTH</CENTER_NAME><REF_FRAME>TEME</REF_FRAME><TIME_SYSTEM>UTC</TIME_SYSTEM><MEAN_ELEMENT_THEORY>SGP4</MEAN_ELEMENT_THEORY></metadata><data><meanElements><EPOCH>2026-01-04T14:00:01.999872</EPOCH><MEAN_MOTION>15.34782368</MEAN_MOTION><ECCENTRICITY>.00042106</ECCENTRICITY><INCLINATION>51.8760</INCLINATION><RA_OF_ASC_NODE>14.8163</RA_OF_ASC_NODE><ARG_OF_PERICENTER>87.1950</ARG_OF_PERICENTER><MEAN_ANOMALY>164.4990</MEAN_ANOMALY></meanElements><tleParameters><EPHEMERIS_TYPE>0</EPHEMERIS_TYPE><CLASSIFICATION_TYPE>U</CLASSIFICATION_TYPE><NORAD_CAT_ID>67145</NORAD_CAT_ID><ELEMENT_SET_NO>999</ELEMENT_SET_NO><REV_AT_EPOCH>398</REV_AT_EPOCH><BSTAR>-.22149141E-1</BSTAR><MEAN_MOTION_DOT>-.701952E-2</MEAN_MOTION_DOT><MEAN_MOTION_DDOT>0</MEAN_MOTION_DDOT></tleParameters></data></segment></body></omm>
<omm id="CCSDS_OMM_VERS" version="2.0">
<header><CREATION_DATE/><ORIGINATOR/></header><body><segment><metadata><OBJECT_NAME>KUIPER-00210</OBJECT_NAME><OBJECT_ID>2025-301P</OBJECT_ID><CENTER_NAME>EARTH</CENTER_NAME><REF_FRAME>TEME</REF_FRAME><TIME_SYSTEM>UTC</TIME_SYSTEM><MEAN_ELEMENT_THEORY>SGP4</MEAN_ELEMENT_THEORY></metadata><data><meanElements><EPOCH>2026-01-04T15:08:24.826560</EPOCH><MEAN_MOTION>15.34637391</MEAN_MOTION><ECCENTRICITY>.0010407</ECCENTRICITY><INCLINATION>51.8607</INCLINATION><RA_OF_ASC_NODE>14.9056</RA_OF_ASC_NODE><ARG_OF_PERICENTER>179.4777</ARG_OF_PERICENTER><MEAN_ANOMALY>180.6221</MEAN_ANOMALY></meanElements><tleParameters><EPHEMERIS_TYPE>0</EPHEMERIS_TYPE><CLASSIFICATION_TYPE>U</CLASSIFICATION_TYPE><NORAD_CAT_ID>67146</NORAD_CAT_ID><ELEMENT_SET_NO>999</ELEMENT_SET_NO><REV_AT_EPOCH>405</REV_AT_EPOCH><BSTAR>.52721102E-3</BSTAR><MEAN_MOTION_DOT>.17653E-3</MEAN_MOTION_DOT><MEAN_MOTION_DDOT>0</MEAN_MOTION_DDOT></tleParameters></data></segment></body></omm>
<omm id="CCSDS_OMM_VERS" version="2.0">
<header><CREATION_DATE/><ORIGINATOR/></header><body><segment><metadata><OBJECT_NAME>KUIPER-00221</OBJECT_NAME><OBJECT_ID>2025-301Q</OBJECT_ID><CENTER_NAME>EARTH</CENTER_NAME><REF_FRAME>TEME</REF_FRAME><TIME_SYSTEM>UTC</TIME_SYSTEM><MEAN_ELEMENT_THEORY>SGP4</MEAN_ELEMENT_THEORY></metadata><data><meanElements><EPOCH>2026-01-04T14:40:31.628352</EPOCH><MEAN_MOTION>15.36121271</MEAN_MOTION><ECCENTRICITY>.00050174</ECCENTRICITY><INCLINATION>51.8727</INCLINATION><RA_OF_ASC_NODE>14.7914</RA_OF_ASC_NODE><ARG_OF_PERICENTER>140.2855</ARG_OF_PERICENTER><MEAN_ANOMALY>219.8500</MEAN_ANOMALY></meanElements><tleParameters><EPHEMERIS_TYPE>0</EPHEMERIS_TYPE><CLASSIFICATION_TYPE>U</CLASSIFICATION_TYPE><NORAD_CAT_ID>67147</NORAD_CAT_ID><ELEMENT_SET_NO>999</ELEMENT_SET_NO><REV_AT_EPOCH>388</REV_AT_EPOCH><BSTAR>.62894682E-3</BSTAR><MEAN_MOTION_DOT>.2216E-3</MEAN_MOTION_DOT><MEAN_MOTION_DDOT>0</MEAN_MOTION_DDOT></tleParameters></data></segment></body></omm>

</ndm>
