KUIPER-00186            
1 67140U 25301H   26004.61988164  .00030584  00000+0  87849-3 0  9992
2 67140  51.8694  14.8438 0007863 158.9399 201.1912 15.35546955  3882
KUIPER-00187            
1 67141U 25301J   26004.61013367  .00034966  00000+0  98249-3 0  9991
2 67141  51.8720  14.7831 0004928 145.0018 215.1293 15.36184745  3886
KUIPER-00188            
1 67142U 25301K   26004.36070910  .00016238  00000+0  47462-3 0  9994
2 67142  51.8705  16.1079 0007496 163.7326 196.3901 15.35404837  3840
KUIPER-00191            
1 67143U 25301L   26004.61850979  .00027269  00000+0  78403-3 0  9999
2 67143  51.8684  14.8348 0006558 158.6353 201.4908 15.35585566  3914
KUIPER-00196            
1 67144U 25301M   26004.54276913  .00032484  00000+0  90875-3 0  9994
2 67144  51.8737  15.0812 0003856 120.8124 239.3243 15.36362763  3878
KUIPER-00204            
1 67145U 25301N   26004.58335648 -.00701952  00000+0 -22149-1 0  9992
2 67145  51.8760  14.8163 0004210  87.1950 164.4990 15.34782368  3982
KUIPER-00210            
1 67146U 25301P   26004.63084290  .00017653  00000+0  52721-3 0  9990
2 67146  51.8607  14.9056 0010407 179.4777 180.6221 15.34637391  4053
KUIPER-00221            
1 67147U 25301Q   26004.61147718  .00022160  00000+0  62895-3 0  9996
2 67147  51.8727  14.7914 0005017 140.2855 219.8500 15.36121271  3884
